{
  "type": "FeatureCollection",
  "features": [
    {
      "type": "Feature",
      "properties": {
        "norad_id": 36585,
        "name": "GPS BIIF-1  (PRN 25)",
        "group": "gnss",
        "lat": -15.164070601585165,
        "lon": -154.89227465284853,
        "alt_km": 20144.705854471253,
        "timestamp": "2025-12-06T11:28:11.305402+00:00",
        "meta_object_name": "GPS BIIF-1  (PRN 25)",
        "meta_object_id": "2010-022A",
        "meta_epoch": "2025-12-05T06:08:38.756832",
        "meta_mean_motion": 2.00552724,
        "meta_eccentricity": 0.01258019,
        "meta_inclination": 54.3015,
        "meta_ra_of_asc_node": 216.3758,
        "meta_arg_of_pericenter": 64.9927,
        "meta_mean_anomaly": 115.5079,
        "meta_ephemeris_type": 0,
        "meta_classification_type": "U",
        "meta_norad_cat_id": 36585,
        "meta_element_set_no": 999,
        "meta_rev_at_epoch": 11370,
        "meta_bstar": 0,
        "meta_mean_motion_dot": 6.2e-07,
        "meta_mean_motion_ddot": 0,
        "tle_line1": "1 36585U 10022A   25339.25600413  .00000062  00000+0  00000+0 0  9991",
        "tle_line2": "2 36585  54.3015 216.3758 0125801  64.9927 115.5079  2.00552724113700"
      },
      "geometry": {
        "type": "Point",
        "coordinates": [
          -154.89227465284853,
          -15.164070601585165
        ]
      }
    },
    {
      "type": "Feature",
      "properties": {
        "norad_id": 36828,
        "name": "BEIDOU-2 IGSO-1 (C06)",
        "group": "gnss",
        "lat": -8.441163292074943,
        "lon": -9.162459171921213,
        "alt_km": 35590.945329269845,
        "timestamp": "2025-12-06T11:28:11.305415+00:00",
        "meta_object_name": "BEIDOU-2 IGSO-1 (C06)",
        "meta_object_id": "2010-036A",
        "meta_epoch": "2025-12-05T10:47:07.730592",
        "meta_mean_motion": 1.00278097,
        "meta_eccentricity": 0.00512452,
        "meta_inclination": 54.2848,
        "meta_ra_of_asc_node": 164.7141,
        "meta_arg_of_pericenter": 215.7912,
        "meta_mean_anomaly": 323.5719,
        "meta_ephemeris_type": 0,
        "meta_classification_type": "U",
        "meta_norad_cat_id": 36828,
        "meta_element_set_no": 999,
        "meta_rev_at_epoch": 5615,
        "meta_bstar": 0,
        "meta_mean_motion_dot": -4.5e-07,
        "meta_mean_motion_ddot": 0,
        "tle_line1": "1 36828U 10036A   25339.44939503 -.00000045  00000+0  00000+0 0  9994",
        "tle_line2": "2 36828  54.2848 164.7141 0051245 215.7912 323.5719  1.00278097 56159"
      },
      "geometry": {
        "type": "Point",
        "coordinates": [
          -9.162459171921213,
          -8.441163292074943
        ]
      }
    },
    {
      "type": "Feature",
      "properties": {
        "norad_id": 37210,
        "name": "BEIDOU-2 G4 (C04)",
        "group": "gnss",
        "lat": -1.175940395897955,
        "lon": 47.72517836588062,
        "alt_km": 35825.9109218871,
        "timestamp": "2025-12-06T11:28:11.305427+00:00",
        "meta_object_name": "BEIDOU-2 G4 (C04)",
        "meta_object_id": "2010-057A",
        "meta_epoch": "2025-12-05T21:18:21.305376",
        "meta_mean_motion": 1.00271317,
        "meta_eccentricity": 0.00109569,
        "meta_inclination": 3.1668,
        "meta_ra_of_asc_node": 69.955,
        "meta_arg_of_pericenter": 189.3794,
        "meta_mean_anomaly": 295.2635,
        "meta_ephemeris_type": 0,
        "meta_classification_type": "U",
        "meta_norad_cat_id": 37210,
        "meta_element_set_no": 999,
        "meta_rev_at_epoch": 5535,
        "meta_bstar": 0,
        "meta_mean_motion_dot": -1.04e-06,
        "meta_mean_motion_ddot": 0,
        "tle_line1": "1 37210U 10057A   25339.88774659 -.00000104  00000+0  00000+0 0  9996",
        "tle_line2": "2 37210   3.1668  69.9550 0010956 189.3794 295.2635  1.00271317 55357"
      },
      "geometry": {
        "type": "Point",
        "coordinates": [
          47.72517836588062,
          -1.175940395897955
        ]
      }
    },
    {
      "type": "Feature",
      "properties": {
        "norad_id": 37256,
        "name": "BEIDOU-2 IGSO-2 (C07)",
        "group": "gnss",
        "lat": 47.03895555521066,
        "lon": -10.149271798620193,
        "alt_km": 35924.25678452709,
        "timestamp": "2025-12-06T11:28:11.305439+00:00",
        "meta_object_name": "BEIDOU-2 IGSO-2 (C07)",
        "meta_object_id": "2010-068A",
        "meta_epoch": "2025-12-03T17:22:36.030432",
        "meta_mean_motion": 1.0028871,
        "meta_eccentricity": 0.00492335,
        "meta_inclination": 47.9043,
        "meta_ra_of_asc_node": 274.2613,
        "meta_arg_of_pericenter": 216.1442,
        "meta_mean_anomaly": 310.2369,
        "meta_ephemeris_type": 0,
        "meta_classification_type": "U",
        "meta_norad_cat_id": 37256,
        "meta_element_set_no": 999,
        "meta_rev_at_epoch": 5483,
        "meta_bstar": 0,
        "meta_mean_motion_dot": -2.25e-06,
        "meta_mean_motion_ddot": 0,
        "tle_line1": "1 37256U 10068A   25337.72402813 -.00000225  00000+0  00000+0 0  9993",
        "tle_line2": "2 37256  47.9043 274.2613 0049233 216.1442 310.2369  1.00288710 54839"
      },
      "geometry": {
        "type": "Point",
        "coordinates": [
          -10.149271798620193,
          47.03895555521066
        ]
      }
    },
    {
      "type": "Feature",
      "properties": {
        "norad_id": 37384,
        "name": "BEIDOU-2 IGSO-3 (C08)",
        "group": "gnss",
        "lat": -39.89887039303933,
        "lon": 15.81195047620096,
        "alt_km": 35880.51920447194,
        "timestamp": "2025-12-06T11:28:11.305452+00:00",
        "meta_object_name": "BEIDOU-2 IGSO-3 (C08)",
        "meta_object_id": "2011-013A",
        "meta_epoch": "2025-12-03T14:52:09.520896",
        "meta_mean_motion": 1.00272128,
        "meta_eccentricity": 0.00353922,
        "meta_inclination": 62.1308,
        "meta_ra_of_asc_node": 42.005,
        "meta_arg_of_pericenter": 186.5359,
        "meta_mean_anomaly": 174.9093,
        "meta_ephemeris_type": 0,
        "meta_classification_type": "U",
        "meta_norad_cat_id": 37384,
        "meta_element_set_no": 999,
        "meta_rev_at_epoch": 5370,
        "meta_bstar": 0,
        "meta_mean_motion_dot": -1.99e-06,
        "meta_mean_motion_ddot": 0,
        "tle_line1": "1 37384U 11013A   25337.61955464 -.00000199  00000+0  00000+0 0  9999",
        "tle_line2": "2 37384  62.1308  42.0050 0035392 186.5359 174.9093  1.00272128 53708"
      },
      "geometry": {
        "type": "Point",
        "coordinates": [
          15.81195047620096,
          -39.89887039303933
        ]
      }
    },
    {
      "type": "Feature",
      "properties": {
        "norad_id": 37605,
        "name": "GSAT-8 (GAGAN/PRN 127)",
        "group": "gnss",
        "lat": -1.0303559332053738,
        "lon": -57.290438868142445,
        "alt_km": 35756.22690578503,
        "timestamp": "2025-12-06T11:28:11.305465+00:00",
        "meta_object_name": "GSAT-8 (GAGAN/PRN 127)",
        "meta_object_id": "2011-022A",
        "meta_epoch": "2025-12-05T20:49:26.905728",
        "meta_mean_motion": 1.00272352,
        "meta_eccentricity": 0.00091178,
        "meta_inclination": 1.6309,
        "meta_ra_of_asc_node": 84.2663,
        "meta_arg_of_pericenter": 178.897,
        "meta_mean_anomaly": 179.2114,
        "meta_ephemeris_type": 0,
        "meta_classification_type": "U",
        "meta_norad_cat_id": 37605,
        "meta_element_set_no": 999,
        "meta_rev_at_epoch": 5127,
        "meta_bstar": 0,
        "meta_mean_motion_dot": 9.3e-07,
        "meta_mean_motion_ddot": 0,
        "tle_line1": "1 37605U 11022A   25339.86767252  .00000093  00000+0  00000+0 0  9992",
        "tle_line2": "2 37605   1.6309  84.2663 0009117 178.8970 179.2114  1.00272352 51271"
      },
      "geometry": {
        "type": "Point",
        "coordinates": [
          -57.290438868142445,
          -1.0303559332053738
        ]
      }
    },
    {
      "type": "Feature",
      "properties": {
        "norad_id": 37763,
        "name": "BEIDOU-2 IGSO-4 (C09)",
        "group": "gnss",
        "lat": 5.760154929614434,
        "lon": -16.724260359810625,
        "alt_km": 35437.628995557265,
        "timestamp": "2025-12-06T11:28:11.305478+00:00",
        "meta_object_name": "BEIDOU-2 IGSO-4 (C09)",
        "meta_object_id": "2011-038A",
        "meta_epoch": "2025-12-01T12:32:09.960864",
        "meta_mean_motion": 1.00284074,
        "meta_eccentricity": 0.01487808,
        "meta_inclination": 54.5808,
        "meta_ra_of_asc_node": 167.4476,
        "meta_arg_of_pericenter": 230.2031,
        "meta_mean_anomaly": 315.0387,
        "meta_ephemeris_type": 0,
        "meta_classification_type": "U",
        "meta_norad_cat_id": 37763,
        "meta_element_set_no": 999,
        "meta_rev_at_epoch": 5266,
        "meta_bstar": 0,
        "meta_mean_motion_dot": 1.01e-06,
        "meta_mean_motion_ddot": 0,
        "tle_line1": "1 37763U 11038A   25335.52233751  .00000101  00000+0  00000+0 0  9995",
        "tle_line2": "2 37763  54.5808 167.4476 0148780 230.2031 315.0387  1.00284074 52664"
      },
      "geometry": {
        "type": "Point",
        "coordinates": [
          -16.724260359810625,
          5.760154929614434
        ]
      }
    }
  ]
}